{
  "type": "FeatureCollection",
  "features": [
    {
      "type": "Feature",
      "properties": {
        "norad_id": 67054,
        "name": "STARLINK-35754",
        "group": "last-30-days",
        "lat": -41.42673983456019,
        "lon": 20.996343872996345,
        "alt_km": 385.7853690036927,
        "timestamp": "2025-12-27T11:23:18.582025+00:00",
        "meta_object_name": "STARLINK-35754",
        "meta_object_id": "2025-294AA",
        "meta_epoch": "2025-12-27T04:00:01.998720",
        "meta_mean_motion": 15.62725182,
        "meta_eccentricity": 0.0001512,
        "meta_inclination": 42.9994,
        "meta_ra_of_asc_node": 94.0935,
        "meta_arg_of_pericenter": 273.0639,
        "meta_mean_anomaly": 77.724,
        "meta_ephemeris_type": 0,
        "meta_classification_type": "U",
        "meta_norad_cat_id": 67054,
        "meta_element_set_no": 999,
        "meta_rev_at_epoch": 242,
        "meta_bstar": -0.023506,
        "meta_mean_motion_dot": -0.01918088,
        "meta_mean_motion_ddot": 0,
        "tle_line1": "1 67054U 25294AA  25361.16668980 -.01918088  00000+0 -23506-1 0  9998",
        "tle_line2": "2 67054  42.9994  94.0935 0001512 273.0639  77.7240 15.62725182  2424"
      },
      "geometry": {
        "type": "Point",
        "coordinates": [
          20.996343872996345,
          -41.42673983456019
        ]
      }
    },
    {
      "type": "Feature",
      "properties": {
        "norad_id": 67055,
        "name": "STARLINK-35790",
        "group": "last-30-days",
        "lat": -40.94284934155664,
        "lon": 23.662262495839883,
        "alt_km": 385.77032872255404,
        "timestamp": "2025-12-27T11:23:18.582035+00:00",
        "meta_object_name": "STARLINK-35790",
        "meta_object_id": "2025-294AB",
        "meta_epoch": "2025-12-27T04:00:01.998720",
        "meta_mean_motion": 15.62710654,
        "meta_eccentricity": 0.0001587,
        "meta_inclination": 42.9994,
        "meta_ra_of_asc_node": 94.0875,
        "meta_arg_of_pericenter": 272.6422,
        "meta_mean_anomaly": 80.2331,
        "meta_ephemeris_type": 0,
        "meta_classification_type": "U",
        "meta_norad_cat_id": 67055,
        "meta_element_set_no": 999,
        "meta_rev_at_epoch": 262,
        "meta_bstar": -0.023551,
        "meta_mean_motion_dot": -0.01920402,
        "meta_mean_motion_ddot": 0,
        "tle_line1": "1 67055U 25294AB  25361.16668980 -.01920402  00000+0 -23551-1 0  9992",
        "tle_line2": "2 67055  42.9994  94.0875 0001587 272.6422  80.2331 15.62710654  2625"
      },
      "geometry": {
        "type": "Point",
        "coordinates": [
          23.662262495839883,
          -40.94284934155664
        ]
      }
    },
    {
      "type": "Feature",
      "properties": {
        "norad_id": 67056,
        "name": "STARLINK-36143",
        "group": "last-30-days",
        "lat": -39.235461550988575,
        "lon": 31.033848417692855,
        "alt_km": 385.83932076419296,
        "timestamp": "2025-12-27T11:23:18.582046+00:00",
        "meta_object_name": "STARLINK-36143",
        "meta_object_id": "2025-294AC",
        "meta_epoch": "2025-12-27T04:00:01.998720",
        "meta_mean_motion": 15.62686702,
        "meta_eccentricity": 0.0001499,
        "meta_inclination": 42.9994,
        "meta_ra_of_asc_node": 94.0723,
        "meta_arg_of_pericenter": 272.987,
        "meta_mean_anomaly": 85.8209,
        "meta_ephemeris_type": 0,
        "meta_classification_type": "U",
        "meta_norad_cat_id": 67056,
        "meta_element_set_no": 999,
        "meta_rev_at_epoch": 262,
        "meta_bstar": -0.02349,
        "meta_mean_motion_dot": -0.01914344,
        "meta_mean_motion_ddot": 0,
        "tle_line1": "1 67056U 25294AC  25361.16668980 -.01914344  00000+0 -23490-1 0  9993",
        "tle_line2": "2 67056  42.9994  94.0723 0001499 272.9870  85.8209 15.62686702  2621"
      },
      "geometry": {
        "type": "Point",
        "coordinates": [
          31.033848417692855,
          -39.235461550988575
        ]
      }
    },
    {
      "type": "Feature",
      "properties": {
        "norad_id": 67057,
        "name": "STARLINK-36141",
        "group": "last-30-days",
        "lat": -39.864832199955714,
        "lon": 28.583419648098367,
        "alt_km": 385.8274599835713,
        "timestamp": "2025-12-27T11:23:18.582056+00:00",
        "meta_object_name": "STARLINK-36141",
        "meta_object_id": "2025-294AD",
        "meta_epoch": "2025-12-27T04:00:01.998720",
        "meta_mean_motion": 15.62696087,
        "meta_eccentricity": 0.0001497,
        "meta_inclination": 42.9992,
        "meta_ra_of_asc_node": 94.0778,
        "meta_arg_of_pericenter": 273.3401,
        "meta_mean_anomaly": 83.4596,
        "meta_ephemeris_type": 0,
        "meta_classification_type": "U",
        "meta_norad_cat_id": 67057,
        "meta_element_set_no": 999,
        "meta_rev_at_epoch": 254,
        "meta_bstar": -0.023476,
        "meta_mean_motion_dot": -0.01913961,
        "meta_mean_motion_ddot": 0,
        "tle_line1": "1 67057U 25294AD  25361.16668980 -.01913961  00000+0 -23476-1 0  9992",
        "tle_line2": "2 67057  42.9992  94.0778 0001497 273.3401  83.4596 15.62696087  2544"
      },
      "geometry": {
        "type": "Point",
        "coordinates": [
          28.583419648098367,
          -39.864832199955714
        ]
      }
    },
    {
      "type": "Feature",
      "properties": {
        "norad_id": 67058,
        "name": "STARLINK-35767",
        "group": "last-30-days",
        "lat": -40.425839466666375,
        "lon": 26.16361857777475,
        "alt_km": 385.83917641648077,
        "timestamp": "2025-12-27T11:23:18.582068+00:00",
        "meta_object_name": "STARLINK-35767",
        "meta_object_id": "2025-294AE",
        "meta_epoch": "2025-12-27T04:00:01.998720",
        "meta_mean_motion": 15.62704678,
        "meta_eccentricity": 0.0001491,
        "meta_inclination": 42.9997,
        "meta_ra_of_asc_node": 94.0827,
        "meta_arg_of_pericenter": 273.6129,
        "meta_mean_anomaly": 81.2424,
        "meta_ephemeris_type": 0,
        "meta_classification_type": "U",
        "meta_norad_cat_id": 67058,
        "meta_element_set_no": 999,
        "meta_rev_at_epoch": 242,
        "meta_bstar": -0.023589,
        "meta_mean_motion_dot": -0.0192262,
        "meta_mean_motion_ddot": 0,
        "tle_line1": "1 67058U 25294AE  25361.16668980 -.01922620  00000+0 -23589-1 0  9990",
        "tle_line2": "2 67058  42.9997  94.0827 0001491 273.6129  81.2424 15.62704678  2428"
      },
      "geometry": {
        "type": "Point",
        "coordinates": [
          26.16361857777475,
          -40.425839466666375
        ]
      }
    },
    {
      "type": "Feature",
      "properties": {
        "norad_id": 67059,
        "name": "HULIANWANG DIGUI-119",
        "group": "last-30-days",
        "lat": -36.283758843123195,
        "lon": 168.13867097459533,
        "alt_km": 809.8586973926922,
        "timestamp": "2025-12-27T11:23:18.582078+00:00",
        "meta_object_name": "HULIANWANG DIGUI-119",
        "meta_object_id": "2025-295A",
        "meta_epoch": "2025-12-27T03:34:31.522080",
        "meta_mean_motion": 14.24618068,
        "meta_eccentricity": 0.0014,
        "meta_inclination": 50.0049,
        "meta_ra_of_asc_node": 311.4648,
        "meta_arg_of_pericenter": 297.2627,
        "meta_mean_anomaly": 62.686,
        "meta_ephemeris_type": 0,
        "meta_classification_type": "U",
        "meta_norad_cat_id": 67059,
        "meta_element_set_no": 999,
        "meta_rev_at_epoch": 217,
        "meta_bstar": 0.00010544,
        "meta_mean_motion_dot": 8.7e-07,
        "meta_mean_motion_ddot": 0,
        "tle_line1": "1 67059U 25295A   25361.14897595  .00000087  00000+0  10544-3 0  9996",
        "tle_line2": "2 67059  50.0049 311.4648 0014000 297.2627  62.6860 14.24618068  2172"
      },
      "geometry": {
        "type": "Point",
        "coordinates": [
          168.13867097459533,
          -36.283758843123195
        ]
      }
    },
    {
      "type": "Feature",
      "properties": {
        "norad_id": 67060,
        "name": "HULIANWANG DIGUI-120",
        "group": "last-30-days",
        "lat": -49.915292075019764,
        "lon": -144.08481560062853,
        "alt_km": 802.5296632316195,
        "timestamp": "2025-12-27T11:23:18.582090+00:00",
        "meta_object_name": "HULIANWANG DIGUI-120",
        "meta_object_id": "2025-295B",
        "meta_epoch": "2025-12-23T18:39:46.505376",
        "meta_mean_motion": 14.25711377,
        "meta_eccentricity": 0.0013178,
        "meta_inclination": 50.0058,
        "meta_ra_of_asc_node": 325.6343,
        "meta_arg_of_pericenter": 286.4479,
        "meta_mean_anomaly": 73.4987,
        "meta_ephemeris_type": 0,
        "meta_classification_type": "U",
        "meta_norad_cat_id": 67060,
        "meta_element_set_no": 999,
        "meta_rev_at_epoch": 169,
        "meta_bstar": 6.7209387e-05,
        "meta_mean_motion_dot": 1e-08,
        "meta_mean_motion_ddot": 0,
        "tle_line1": "1 67060U 25295B   25357.77762159  .00000001  00000+0  67209-4 0  9996",
        "tle_line2": "2 67060  50.0058 325.6343 0013178 286.4479  73.4987 14.25711377  1697"
      },
      "geometry": {
        "type": "Point",
        "coordinates": [
          -144.08481560062853,
          -49.915292075019764
        ]
      }
    }
  ]
}